GLOBALSTAR M094         
1 39074U 13005C   25070.85956034 -.00000083  00000+0  11619-3 0  9998
2 39074  51.9945 118.4504 0000657  90.9868 269.1074 12.62268875560107
GLOBALSTAR M096         
1 39075U 13005D   25070.63526797 -.00000095  00000+0  50991-4 0  9994
2 39075  52.0065 167.5725 0000775  91.0196 269.0760 12.62269027558973
GLOBALSTAR M078         
1 39076U 13005E   25070.92495420 -.00000081  00000+0  12683-3 0  9995
2 39076  51.9856 251.3291 0000749  21.2340 338.8557 12.62260196557636
GLOBALSTAR M095         
1 39077U 13005F   25070.87262424 -.00000088  00000+0  90351-4 0  9992
2 39077  51.9783 248.7365 0001007  59.8762 300.2205 12.62267768557489
GLOBALSTAR M087         
1 52888U 22064A   25070.90329757 -.00000104  00000+0 -74330-7 0  9991
2 52888  51.9813  30.0450 0000492  59.0222 301.0693 12.62269219132757
